FLOCK 2P-4              
1 41611U 16040N   17263.85881358  .00004356  00000-0  18941-3 0  9993
2 41611  97.4531 325.9444 0012876 107.2458 253.0189 15.22724926 69223
FLOCK 2P-10             
1 41612U 16040P   17263.83684128  .00004247  00000-0  18476-3 0  9990
2 41612  97.4536 326.0012 0012616 107.2018 253.0600 15.22723914 69220
FLOCK 2P-8              
1 41613U 16040Q   17263.39323575  .00004733  00000-0  20561-3 0  9996
2 41613  97.4533 325.5007 0012788 107.8111 252.4522 15.22711874 69156
FLOCK 2P-12             
1 41614U 16040R   17263.74906042  .00001457  00000-0  65442-4 0  9990
2 41614  97.4540 326.0008 0012483 106.9815 253.2791 15.22708041 69211
FLOCK 2P-7              
1 41615U 16040S   17263.84767906  .00004271  00000-0  18573-3 0  9995
2 41615  97.4528 325.9485 0012628 107.8860 252.3755 15.22733805 69223
FLOCK 2P-5              
1 41616U 16040T   17263.69442280  .00002626  00000-0  11547-3 0  9990
2 41616  97.4541 325.9206 0012476 106.5541 253.7067 15.22709840 69181
FLOCK 2P-1              
1 41617U 16040U   17263.81419102  .00001425  00000-0  64030-4 0  9994
2 41617  97.4544 326.0688 0012165 107.3176 252.9392 15.22731898 69224
FLOCK 2P-3              
1 41618U 16040V   17263.84235755  .00003922  00000-0  17089-3 0  9993
2 41618  97.4541 326.0231 0012352 106.9237 253.3354 15.22721580 69227
BEESAT-4                
1 41619U 16040W   17263.39323917  .00002127  00000-0  98522-4 0  9990
2 41619  97.4536 324.8318 0013674  95.7260 264.5535 15.21119507 57066
3CAT-2                  
1 41732U 16051B   17263.78200976  .00002271  00000-0  93196-4 0  9992
2 41732  97.3718 179.3439 0012505 302.4151 119.2099 15.25194786 61106
FLOCK 2E'-13            
1 41761U 98067KH  17263.63059536  .00010278  00000-0  11763-3 0  9994
2 41761  51.6362 269.5179 0005007 267.8438  92.1983 15.62784856 57829
FLOCK 2E'-14            
1 41762U 98067KJ  17263.60220209  .00010455  00000-0  11786-3 0  9991
2 41762  51.6373 269.3623 0004738 270.0520  89.9932 15.63155490 57827
FLOCK 2E'-16            
1 41763U 98067KK  17263.60686165  .00011569  00000-0  12700-3 0  9993
2 41763  51.6373 268.6400 0004342 285.1607  74.8908 15.63716534 57791
FLOCK 2E'-15            
1 41764U 98067KL  17263.64797619  .00010106  00000-0  11622-3 0  9993
2 41764  51.6372 269.6626 0004760 276.4498  83.5954 15.62682149 57787
FLOCK 2E'-18            
1 41769U 98067KM  17263.63083551  .00010669  00000-0  12214-3 0  9992
2 41769  51.6372 269.5416 0004271 305.5239  54.5356 15.62732244 57788
FLOCK 2E'-17            
1 41776U 98067KN  17263.42658252  .00012471  00000-0  14108-3 0  9990
2 41776  51.6380 270.4540 0004595 305.4245  54.6320 15.62853181 57741
FLOCK 2E'-19            
1 41777U 98067KP  17263.56190203  .00017176  00000-0  16811-3 0  9993
2 41777  51.6354 265.2903 0003511 314.8105  45.2605 15.66238407 57782
FLOCK 2E'-20            
1 41782U 98067KQ  17263.61146086  .00014778  00000-0  15113-3 0  9994
2 41782  51.6367 266.4112 0003492 312.1062  47.9636 15.65266648 57643
CANX-7                  
1 41788U 16059F   17263.82342254  .00006431  00000-0  11825-2 0  9991
2 41788  98.1840 325.0693 0033662 221.0510 138.8153 14.65611822 52595
ALSAT 1N                
1 41789U 16059G   17263.83080819  .00000115  00000-0  31161-4 0  9999
2 41789  98.1581 324.8557 0027559 211.9247 148.0277 14.64076813 52603
RAVAN                   
1 41849U 16067B   17263.46920139  .00000494  00000-0  47988-4 0  9996
2 41849  97.9442 343.1005 0008263 350.9568   9.1503 14.97187841 46765
CELTEE 1                
1 41850U 16067C   17263.73944305 -.00000149  00000-0 -77498-5 0  9998
2 41850  97.9431 343.2055 0008544 348.9071  11.1960 14.96622030 46795
OPTICUBE 04             
1 41851U 16067D   17263.81672234  .00000104  00000-0  14522-4 0  9994
2 41851  97.9427 343.2584 0008548 349.7168  10.3877 14.96532248 46809
AEROCUBE 8D             
1 41852U 16067E   17263.74847976  .00000206  00000-0  23589-4 0  9990
2 41852  97.9440 343.0776 0009288 348.7679  11.3333 14.96272765 46784
AEROCUBE 8C             
1 41853U 16067F   17263.28803947  .00000430  00000-0  43441-4 0  9998
2 41853  97.9440 342.5906 0009623 351.4948   8.6108 14.96235725 46714
PROMETHEUS 2-1          
1 41854U 16067G   17263.77259383  .00001040  00000-0  97552-4 0  9992
2 41854  97.9450 343.0507 0009881 351.0088   9.0954 14.96231477 46787
PROMETHEUS 2-3          
1 41855U 16067H   17263.77448219  .00001039  00000-0  97412-4 0  9994
2 41855  97.9451 343.0523 0010054 351.3080   8.7965 14.96225081 46788
LEMUR-2-XIAOQING        
1 41871U 16062C   17263.57168797  .00004105  00000-0  18691-3 0  9993
2 41871  51.6477 353.8013 0004370 205.3158 261.0548 15.22848241 45477
LEMUR-2-SOKOLSKY        
1 41872U 16062D   17263.88451657  .00003045  00000-0  14208-3 0  9990
2 41872  51.6629 352.0759 0004316 223.5352 239.4610 15.22903638 45519
LEMUR-2-ANUBHAVTHAKUR   
1 41873U 16062E   17263.47326576  .00001958  00000-0  99641-4 0  9993
2 41873  51.6346 355.3050 0005879 211.1319 238.2883 15.21733798 45423
LEMUR-2-WINGO           
1 41874U 16062F   17263.46779103  .00003772  00000-0  17484-3 0  9991
2 41874  51.6279 354.5209 0007239 185.3045 265.6622 15.22454737 45447
STARS-C                 
1 41895U 98067KR  17263.60751169  .00038877  00000-0  35073-3 0  9995
2 41895  51.6348 270.8594 0004369 357.0971   2.9999 15.67745365 42929
TANCREDO-1              
1 41931U 98067KT  17263.38289428  .00202836  00000-0  85486-3 0  9996
2 41931  51.6290 262.5007 0003717  23.7322 336.3852 15.84332489 38583
ITF-2                   
1 41932U 98067KU  17263.43882367  .00019110  00000-0  21839-3 0  9997
2 41932  51.6387 275.7877 0003620 280.5074  79.5512 15.62196003 38419
WASEDA-SAT3             
1 41933U 98067KV  17263.43426314  .00023764  00000-0  25922-3 0  9991
2 41933  51.6368 274.9776 0003476 289.4232  70.6386 15.63244394 38421
AOBA-VELOX 3            
1 41935U 98067KX  17263.40198041  .00022276  00000-0  24709-3 0  9992
2 41935  51.6382 275.5344 0003133 291.7574  68.3086 15.62858124 38514
OSNSAT                  
1 41939U 98067KZ  17261.41240115  .00054295  00000-0  42949-3 0  9997
2 41939  51.6342 279.4346 0003240 309.6339  50.4372 15.70795367 37535
FLOCK 3P-8              
1 41951U 17008D   17263.85439461  .00002834  00000-0  12337-3 0  9991
2 41951  97.4867 324.8872 0007710 206.2178 153.8669 15.23039259 33089
FLOCK 3P-51             
1 41952U 17008E   17263.49624067  .00002419  00000-0  10576-3 0  9992
2 41952  97.4874 324.6165 0007171 228.1954 131.8670 15.23044768 33031
FLOCK 3P-37             
1 41953U 17008F   17263.57960260  .00002913  00000-0  12506-3 0  9994
2 41953  97.4872 324.8035 0006448 232.9959 127.0688 15.23494533 33060
INS-1B                  
1 41954U 17008G   17263.60877257  .00001809  00000-0  82135-4 0  9991
2 41954  97.4844 324.3890 0008838 209.6485 150.4251 15.22061086 32982
FLOCK 3P-19             
1 41955U 17008H   17263.60713100  .00003236  00000-0  14032-3 0  9994
2 41955  97.4864 324.5932 0008496 208.2428 151.8348 15.23062310 32979
FLOCK 3P-24             
1 41956U 17008J   17263.40704722  .00004359  00000-0  18783-3 0  9997
2 41956  97.4864 324.4000 0008501 205.9509 154.1303 15.23079363 33026
FLOCK 3P-18             
1 41957U 17008K   17263.80224549  .00005151  00000-0  22120-3 0  9997
2 41957  97.4862 324.7956 0008552 206.5624 153.5175 15.23112872 32920
FLOCK 3P-22             
1 41958U 17008L   17263.21715671  .00002786  00000-0  12130-3 0  9995
2 41958  97.4866 324.1994 0008329 207.9429 152.1361 15.23051884 32827
FLOCK 3P-21             
1 41959U 17008M   17263.53379605  .00003437  00000-0  14889-3 0  9991
2 41959  97.4871 324.5546 0008076 208.8968 151.1822 15.23055064 32889
FLOCK 3P-28             
1 41960U 17008N   17263.46624340  .00003007  00000-0  13075-3 0  9993
2 41960  97.4869 324.4868 0007945 207.4463 152.6355 15.23027789 32951
FLOCK 3P-26             
1 41961U 17008P   17263.21243830  .00002721  00000-0  11851-3 0  9990
2 41961  97.4869 324.2108 0008191 207.4357 152.6448 15.23054234 32838
FLOCK 3P-17             
1 41962U 17008Q   17263.45573263  .00003295  00000-0  14296-3 0  9996
2 41962  97.4868 324.4996 0007908 209.7706 150.3082 15.23037395 32820
FLOCK 3P-27             
1 41963U 17008R   17263.15514956  .00004138  00000-0  17878-3 0  9994
2 41963  97.4868 324.1367 0008323 208.6635 151.4145 15.23020135 32827
FLOCK 3P-25             
1 41964U 17008S   17263.40375532  .00001682  00000-0  74322-4 0  9997
2 41964  97.4865 324.4112 0007938 207.8006 152.2807 15.23107389 32843
FLOCK 3P-4              
1 41965U 17008T   17263.20058828  .00001826  00000-0  80501-4 0  9998
2 41965  97.4867 324.2302 0007791 210.0814 149.9976 15.23065562 32919
FLOCK 3P-2              
1 41966U 17008U   17263.85858895  .00004251  00000-0  18331-3 0  9998
2 41966  97.4869 324.8886 0007822 205.0747 155.0111 15.23079402 32938
FLOCK 3P-1              
1 41967U 17008V   17263.61061854  .00002775  00000-0  12164-3 0  9991
2 41967  97.4873 324.6110 0007948 208.0719 152.0090 15.22819889 32891
FLOCK 3P-3              
1 41968U 17008W   17263.53278016  .00003268  00000-0  14180-3 0  9991
2 41968  97.4868 324.5518 0007856 206.9308 153.1522 15.23039586 32965
FLOCK 3P-6              
1 41969U 17008X   17263.26504004  .00002891  00000-0  12561-3 0  9993
2 41969  97.4872 324.3028 0007673 207.2481 152.8354 15.23094967 32837
FLOCK 3P-7              
1 41970U 17008Y   17263.18130895  .00003531  00000-0  15263-3 0  9993
2 41970  97.4872 324.2624 0007633 211.4323 148.6458 15.23117174 32832
FLOCK 3P-5              
1 41971U 17008Z   17263.52433117  .00001571  00000-0  69794-4 0  9996
2 41971  97.4873 324.5746 0007655 209.4508 150.6298 15.23015230 32811
FLOCK 3P-12             
1 41972U 17008AA  17263.85101592  .00002949  00000-0  12846-3 0  9997
2 41972  97.4871 324.9033 0007479 208.1298 151.9535 15.22991865 33016
